{"type": "FeatureCollection", "features": [{"type": "Feature", "properties": {}, "geometry": {"type": "Polygon", "coordinates": [[[77.05488283145219, 28.25379976717518], [77.0549828314522, 28.25379976717518], [77.0549828314522, 28.25389976717518], [77.05488283145219, 28.25389976717518], [77.05488283145219, 28.25379976717518]]]}}, {"type": "Feature", "properties": {}, "geometry": {"type": "Polygon", "coordinates": [[[77.07461863849299, 28.25667021807471], [77.074718638493, 28.25667021807471], [77.074718638493, 28.25677021807471], [77.07461863849299, 28.25677021807471], [77.07461863849299, 28.25667021807471]]]}}, {"type": "Feature", "properties": {}, "geometry": {"type": "Polygon", "coordinates": [[[77.05500950797557, 28.24735926117699], [77.05510950797557, 28.24735926117699], [77.05510950797557, 28.24745926117699], [77.05500950797557, 28.24745926117699], [77.05500950797557, 28.24735926117699]]]}}, {"type": "Feature", "properties": {}, "geometry": {"type": "Polygon", "coordinates": [[[77.06021009485193, 28.2355095615347], [77.06031009485193, 28.2355095615347], [77.06031009485193, 28.235609561534698], [77.06021009485193, 28.235609561534698], [77.06021009485193, 28.2355095615347]]]}}, {"type": "Feature", "properties": {}, "geometry": {"type": "Polygon", "coordinates": [[[77.07197079965327, 28.241165168289125], [77.07207079965328, 28.241165168289125], [77.07207079965328, 28.241265168289125], [77.07197079965327, 28.241265168289125], [77.07197079965327, 28.241165168289125]]]}}, {"type": "Feature", "properties": {}, "geometry": {"type": "Polygon", "coordinates": [[[77.07509625700459, 28.258771221404928], [77.07519625700459, 28.258771221404928], [77.07519625700459, 28.258871221404927], [77.07509625700459, 28.258871221404927], [77.07509625700459, 28.258771221404928]]]}}, {"type": "Feature", "properties": {}, "geometry": {"type": "Polygon", "coordinates": [[[77.06417566010639, 28.26329540707925], [77.06427566010639, 28.26329540707925], [77.06427566010639, 28.26339540707925], [77.06417566010639, 28.26339540707925], [77.06417566010639, 28.26329540707925]]]}}, {"type": "Feature", "properties": {}, "geometry": {"type": "Polygon", "coordinates": [[[77.072403919423, 28.260193750526433], [77.072503919423, 28.260193750526433], [77.072503919423, 28.260293750526433], [77.072403919423, 28.260293750526433], [77.072403919423, 28.260193750526433]]]}}, {"type": "Feature", "properties": {}, "geometry": {"type": "Polygon", "coordinates": [[[77.08335703323255, 28.250802454933027], [77.08345703323255, 28.250802454933027], [77.08345703323255, 28.250902454933026], [77.08335703323255, 28.250902454933026], [77.08335703323255, 28.250802454933027]]]}}, {"type": "Feature", "properties": {}, "geometry": {"type": "Polygon", "coordinates": [[[77.07286410464103, 28.259605345571167], [77.07296410464103, 28.259605345571167], [77.07296410464103, 28.259705345571167], [77.07286410464103, 28.259705345571167], [77.07286410464103, 28.259605345571167]]]}}, {"type": "Feature", "properties": {}, "geometry": {"type": "Polygon", "coordinates": [[[77.05549310099236, 28.25577397147553], [77.05559310099237, 28.25577397147553], [77.05559310099237, 28.25587397147553], [77.05549310099236, 28.25587397147553], [77.05549310099236, 28.25577397147553]]]}}, {"type": "Feature", "properties": {}, "geometry": {"type": "Polygon", "coordinates": [[[77.06106402701965, 28.23702715138864], [77.06116402701966, 28.23702715138864], [77.06116402701966, 28.23712715138864], [77.06106402701965, 28.23712715138864], [77.06106402701965, 28.23702715138864]]]}}, {"type": "Feature", "properties": {}, "geometry": {"type": "Polygon", "coordinates": [[[77.06510601965924, 28.253683385437167], [77.06520601965924, 28.253683385437167], [77.06520601965924, 28.253783385437167], [77.06510601965924, 28.253783385437167], [77.06510601965924, 28.253683385437167]]]}}, {"type": "Feature", "properties": {}, "geometry": {"type": "Polygon", "coordinates": [[[77.08234404824694, 28.242742073963175], [77.08244404824694, 28.242742073963175], [77.08244404824694, 28.242842073963175], [77.08234404824694, 28.242842073963175], [77.08234404824694, 28.242742073963175]]]}}, {"type": "Feature", "properties": {}, "geometry": {"type": "Polygon", "coordinates": [[[77.07597282468663, 28.239797996078472], [77.07607282468663, 28.239797996078472], [77.07607282468663, 28.239897996078472], [77.07597282468663, 28.239897996078472], [77.07597282468663, 28.239797996078472]]]}}, {"type": "Feature", "properties": {}, "geometry": {"type": "Polygon", "coordinates": [[[77.07341707771874, 28.264441084794395], [77.07351707771875, 28.264441084794395], [77.07351707771875, 28.264541084794395], [77.07341707771874, 28.264541084794395], [77.07341707771874, 28.264441084794395]]]}}, {"type": "Feature", "properties": {}, "geometry": {"type": "Polygon", "coordinates": [[[77.07739871176797, 28.259845187678867], [77.07749871176797, 28.259845187678867], [77.07749871176797, 28.259945187678866], [77.07739871176797, 28.259945187678866], [77.07739871176797, 28.259845187678867]]]}}, {"type": "Feature", "properties": {}, "geometry": {"type": "Polygon", "coordinates": [[[77.06214552113234, 28.244296464356072], [77.06224552113234, 28.244296464356072], [77.06224552113234, 28.244396464356072], [77.06214552113234, 28.244396464356072], [77.06214552113234, 28.244296464356072]]]}}, {"type": "Feature", "properties": {}, "geometry": {"type": "Polygon", "coordinates": [[[77.06368696802353, 28.2609597183645], [77.06378696802354, 28.2609597183645], [77.06378696802354, 28.2610597183645], [77.06368696802353, 28.2610597183645], [77.06368696802353, 28.2609597183645]]]}}, {"type": "Feature", "properties": {}, "geometry": {"type": "Polygon", "coordinates": [[[77.06789501962757, 28.262060415944525], [77.06799501962757, 28.262060415944525], [77.06799501962757, 28.262160415944525], [77.06789501962757, 28.262160415944525], [77.06789501962757, 28.262060415944525]]]}}, {"type": "Feature", "properties": {}, "geometry": {"type": "Polygon", "coordinates": [[[77.06210762405274, 28.251660390889974], [77.06220762405275, 28.251660390889974], [77.06220762405275, 28.251760390889974], [77.06210762405274, 28.251760390889974], [77.06210762405274, 28.251660390889974]]]}}, {"type": "Feature", "properties": {}, "geometry": {"type": "Polygon", "coordinates": [[[77.06092888405666, 28.246684873042316], [77.06102888405667, 28.246684873042316], [77.06102888405667, 28.246784873042316], [77.06092888405666, 28.246784873042316], [77.06092888405666, 28.246684873042316]]]}}, {"type": "Feature", "properties": {}, "geometry": {"type": "Polygon", "coordinates": [[[77.05549638600183, 28.237465516177725], [77.05559638600184, 28.237465516177725], [77.05559638600184, 28.237565516177725], [77.05549638600183, 28.237565516177725], [77.05549638600183, 28.237465516177725]]]}}, {"type": "Feature", "properties": {}, "geometry": {"type": "Polygon", "coordinates": [[[77.06673385731582, 28.258426866716842], [77.06683385731583, 28.258426866716842], [77.06683385731583, 28.258526866716842], [77.06673385731582, 28.258526866716842], [77.06673385731582, 28.258426866716842]]]}}, {"type": "Feature", "properties": {}, "geometry": {"type": "Polygon", "coordinates": [[[77.07021475386625, 28.264691875317872], [77.07031475386626, 28.264691875317872], [77.07031475386626, 28.264791875317872], [77.07021475386625, 28.264791875317872], [77.07021475386625, 28.264691875317872]]]}}, {"type": "Feature", "properties": {}, "geometry": {"type": "Polygon", "coordinates": [[[77.07587616769152, 28.235055521757406], [77.07597616769152, 28.235055521757406], [77.07597616769152, 28.235155521757406], [77.07587616769152, 28.235155521757406], [77.07587616769152, 28.235055521757406]]]}}, {"type": "Feature", "properties": {}, "geometry": {"type": "Polygon", "coordinates": [[[77.07331231960947, 28.242685185273775], [77.07341231960947, 28.242685185273775], [77.07341231960947, 28.242785185273775], [77.07331231960947, 28.242785185273775], [77.07331231960947, 28.242685185273775]]]}}, {"type": "Feature", "properties": {}, "geometry": {"type": "Polygon", "coordinates": [[[77.08292723370774, 28.248240727905102], [77.08302723370774, 28.248240727905102], [77.08302723370774, 28.248340727905102], [77.08292723370774, 28.248340727905102], [77.08292723370774, 28.248240727905102]]]}}, {"type": "Feature", "properties": {}, "geometry": {"type": "Polygon", "coordinates": [[[77.0596833447677, 28.24982873896246], [77.05978334476771, 28.24982873896246], [77.05978334476771, 28.24992873896246], [77.0596833447677, 28.24992873896246], [77.0596833447677, 28.24982873896246]]]}}, {"type": "Feature", "properties": {}, "geometry": {"type": "Polygon", "coordinates": [[[77.07340117590941, 28.243549195524025], [77.07350117590941, 28.243549195524025], [77.07350117590941, 28.243649195524025], [77.07340117590941, 28.243649195524025], [77.07340117590941, 28.243549195524025]]]}}, {"type": "Feature", "properties": {}, "geometry": {"type": "Polygon", "coordinates": [[[77.07046495884718, 28.25758443010391], [77.07056495884719, 28.25758443010391], [77.07056495884719, 28.25768443010391], [77.07046495884718, 28.25768443010391], [77.07046495884718, 28.25758443010391]]]}}, {"type": "Feature", "properties": {}, "geometry": {"type": "Polygon", "coordinates": [[[77.06378052473285, 28.23484588646872], [77.06388052473285, 28.23484588646872], [77.06388052473285, 28.23494588646872], [77.06378052473285, 28.23494588646872], [77.06378052473285, 28.23484588646872]]]}}, {"type": "Feature", "properties": {}, "geometry": {"type": "Polygon", "coordinates": [[[77.07909222011845, 28.260929033884644], [77.07919222011846, 28.260929033884644], [77.07919222011846, 28.261029033884643], [77.07909222011845, 28.261029033884643], [77.07909222011845, 28.260929033884644]]]}}, {"type": "Feature", "properties": {}, "geometry": {"type": "Polygon", "coordinates": [[[77.08248417939456, 28.261036085115116], [77.08258417939456, 28.261036085115116], [77.08258417939456, 28.261136085115115], [77.08248417939456, 28.261136085115115], [77.08248417939456, 28.261036085115116]]]}}, {"type": "Feature", "properties": {}, "geometry": {"type": "Polygon", "coordinates": [[[77.0770978152865, 28.2366648929934], [77.07719781528651, 28.2366648929934], [77.07719781528651, 28.2367648929934], [77.0770978152865, 28.2367648929934], [77.0770978152865, 28.2366648929934]]]}}, {"type": "Feature", "properties": {}, "geometry": {"type": "Polygon", "coordinates": [[[77.07062362479353, 28.24907020125529], [77.07072362479353, 28.24907020125529], [77.07072362479353, 28.24917020125529], [77.07062362479353, 28.24917020125529], [77.07062362479353, 28.24907020125529]]]}}, {"type": "Feature", "properties": {}, "geometry": {"type": "Polygon", "coordinates": [[[77.0605657349899, 28.247463117526753], [77.0606657349899, 28.247463117526753], [77.0606657349899, 28.247563117526752], [77.0605657349899, 28.247563117526752], [77.0605657349899, 28.247463117526753]]]}}, {"type": "Feature", "properties": {}, "geometry": {"type": "Polygon", "coordinates": [[[77.06370003354603, 28.240779495318982], [77.06380003354603, 28.240779495318982], [77.06380003354603, 28.240879495318982], [77.06370003354603, 28.240879495318982], [77.06370003354603, 28.240779495318982]]]}}, {"type": "Feature", "properties": {}, "geometry": {"type": "Polygon", "coordinates": [[[77.06961357648981, 28.247760411718545], [77.06971357648982, 28.247760411718545], [77.06971357648982, 28.247860411718545], [77.06961357648981, 28.247860411718545], [77.06961357648981, 28.247760411718545]]]}}, {"type": "Feature", "properties": {}, "geometry": {"type": "Polygon", "coordinates": [[[77.07176829597348, 28.24475863207976], [77.07186829597349, 28.24475863207976], [77.07186829597349, 28.244858632079758], [77.07176829597348, 28.244858632079758], [77.07176829597348, 28.24475863207976]]]}}, {"type": "Feature", "properties": {}, "geometry": {"type": "Polygon", "coordinates": [[[77.07305177125323, 28.236951418584173], [77.07315177125324, 28.236951418584173], [77.07315177125324, 28.237051418584173], [77.07305177125323, 28.237051418584173], [77.07305177125323, 28.236951418584173]]]}}, {"type": "Feature", "properties": {}, "geometry": {"type": "Polygon", "coordinates": [[[77.05624712188697, 28.260539755341103], [77.05634712188697, 28.260539755341103], [77.05634712188697, 28.260639755341103], [77.05624712188697, 28.260639755341103], [77.05624712188697, 28.260539755341103]]]}}, {"type": "Feature", "properties": {}, "geometry": {"type": "Polygon", "coordinates": [[[77.05830000973391, 28.241148417149113], [77.05840000973392, 28.241148417149113], [77.05840000973392, 28.241248417149112], [77.05830000973391, 28.241248417149112], [77.05830000973391, 28.241148417149113]]]}}, {"type": "Feature", "properties": {}, "geometry": {"type": "Polygon", "coordinates": [[[77.07783083182804, 28.248787253763666], [77.07793083182804, 28.248787253763666], [77.07793083182804, 28.248887253763666], [77.07783083182804, 28.248887253763666], [77.07783083182804, 28.248787253763666]]]}}, {"type": "Feature", "properties": {}, "geometry": {"type": "Polygon", "coordinates": [[[77.06710860905909, 28.237598031827275], [77.0672086090591, 28.237598031827275], [77.0672086090591, 28.237698031827275], [77.06710860905909, 28.237698031827275], [77.06710860905909, 28.237598031827275]]]}}, {"type": "Feature", "properties": {}, "geometry": {"type": "Polygon", "coordinates": [[[77.07454618598221, 28.256451800845145], [77.07464618598222, 28.256451800845145], [77.07464618598222, 28.256551800845145], [77.07454618598221, 28.256551800845145], [77.07454618598221, 28.256451800845145]]]}}, {"type": "Feature", "properties": {}, "geometry": {"type": "Polygon", "coordinates": [[[77.06448757992275, 28.246703235363245], [77.06458757992276, 28.246703235363245], [77.06458757992276, 28.246803235363245], [77.06448757992275, 28.246803235363245], [77.06448757992275, 28.246703235363245]]]}}, {"type": "Feature", "properties": {}, "geometry": {"type": "Polygon", "coordinates": [[[77.06763497092693, 28.240339830796625], [77.06773497092694, 28.240339830796625], [77.06773497092694, 28.240439830796625], [77.06763497092693, 28.240439830796625], [77.06763497092693, 28.240339830796625]]]}}, {"type": "Feature", "properties": {}, "geometry": {"type": "Polygon", "coordinates": [[[77.08188090720179, 28.242302598167893], [77.0819809072018, 28.242302598167893], [77.0819809072018, 28.242402598167892], [77.08188090720179, 28.242402598167892], [77.08188090720179, 28.242302598167893]]]}}, {"type": "Feature", "properties": {}, "geometry": {"type": "Polygon", "coordinates": [[[77.05586743462626, 28.251310567649018], [77.05596743462627, 28.251310567649018], [77.05596743462627, 28.251410567649017], [77.05586743462626, 28.251410567649017], [77.05586743462626, 28.251310567649018]]]}}, {"type": "Feature", "properties": {}, "geometry": {"type": "Polygon", "coordinates": [[[77.08209561821056, 28.263669781051725], [77.08219561821056, 28.263669781051725], [77.08219561821056, 28.263769781051725], [77.08209561821056, 28.263769781051725], [77.08209561821056, 28.263669781051725]]]}}, {"type": "Feature", "properties": {}, "geometry": {"type": "Polygon", "coordinates": [[[77.06058273106373, 28.249136824383513], [77.06068273106374, 28.249136824383513], [77.06068273106374, 28.249236824383512], [77.06058273106373, 28.249236824383512], [77.06058273106373, 28.249136824383513]]]}}, {"type": "Feature", "properties": {}, "geometry": {"type": "Polygon", "coordinates": [[[77.08368882623084, 28.246154414749892], [77.08378882623084, 28.246154414749892], [77.08378882623084, 28.24625441474989], [77.08368882623084, 28.24625441474989], [77.08368882623084, 28.246154414749892]]]}}, {"type": "Feature", "properties": {}, "geometry": {"type": "Polygon", "coordinates": [[[77.06702741987195, 28.24849887782702], [77.06712741987195, 28.24849887782702], [77.06712741987195, 28.24859887782702], [77.06702741987195, 28.24859887782702], [77.06702741987195, 28.24849887782702]]]}}, {"type": "Feature", "properties": {}, "geometry": {"type": "Polygon", "coordinates": [[[77.07564868730647, 28.25131206204982], [77.07574868730647, 28.25131206204982], [77.07574868730647, 28.25141206204982], [77.07564868730647, 28.25141206204982], [77.07564868730647, 28.25131206204982]]]}}, {"type": "Feature", "properties": {}, "geometry": {"type": "Polygon", "coordinates": [[[77.07158806728489, 28.26383567361719], [77.0716880672849, 28.26383567361719], [77.0716880672849, 28.26393567361719], [77.07158806728489, 28.26393567361719], [77.07158806728489, 28.26383567361719]]]}}, {"type": "Feature", "properties": {}, "geometry": {"type": "Polygon", "coordinates": [[[77.07172618294864, 28.23652077415484], [77.07182618294864, 28.23652077415484], [77.07182618294864, 28.23662077415484], [77.07172618294864, 28.23662077415484], [77.07172618294864, 28.23652077415484]]]}}, {"type": "Feature", "properties": {}, "geometry": {"type": "Polygon", "coordinates": [[[77.0828974005378, 28.23932872932648], [77.0829974005378, 28.23932872932648], [77.0829974005378, 28.23942872932648], [77.0828974005378, 28.23942872932648], [77.0828974005378, 28.23932872932648]]]}}, {"type": "Feature", "properties": {}, "geometry": {"type": "Polygon", "coordinates": [[[77.0743769377766, 28.252437019177684], [77.07447693777661, 28.252437019177684], [77.07447693777661, 28.252537019177684], [77.0743769377766, 28.252537019177684], [77.0743769377766, 28.252437019177684]]]}}, {"type": "Feature", "properties": {}, "geometry": {"type": "Polygon", "coordinates": [[[77.06161481617971, 28.26144443387698], [77.06171481617972, 28.26144443387698], [77.06171481617972, 28.26154443387698], [77.06161481617971, 28.26154443387698], [77.06161481617971, 28.26144443387698]]]}}, {"type": "Feature", "properties": {}, "geometry": {"type": "Polygon", "coordinates": [[[77.07171700349339, 28.2474071593374], [77.0718170034934, 28.2474071593374], [77.0718170034934, 28.2475071593374], [77.07171700349339, 28.2475071593374], [77.07171700349339, 28.2474071593374]]]}}, {"type": "Feature", "properties": {}, "geometry": {"type": "Polygon", "coordinates": [[[77.07560735980947, 28.240796511736743], [77.07570735980947, 28.240796511736743], [77.07570735980947, 28.240896511736743], [77.07560735980947, 28.240896511736743], [77.07560735980947, 28.240796511736743]]]}}, {"type": "Feature", "properties": {}, "geometry": {"type": "Polygon", "coordinates": [[[77.06314476555283, 28.254926266036524], [77.06324476555284, 28.254926266036524], [77.06324476555284, 28.255026266036523], [77.06314476555283, 28.255026266036523], [77.06314476555283, 28.254926266036524]]]}}, {"type": "Feature", "properties": {}, "geometry": {"type": "Polygon", "coordinates": [[[77.06809810201081, 28.237025122369154], [77.06819810201081, 28.237025122369154], [77.06819810201081, 28.237125122369154], [77.06809810201081, 28.237125122369154], [77.06809810201081, 28.237025122369154]]]}}, {"type": "Feature", "properties": {}, "geometry": {"type": "Polygon", "coordinates": [[[77.06052418949244, 28.237027799446388], [77.06062418949244, 28.237027799446388], [77.06062418949244, 28.237127799446387], [77.06052418949244, 28.237127799446387], [77.06052418949244, 28.237027799446388]]]}}, {"type": "Feature", "properties": {}, "geometry": {"type": "Polygon", "coordinates": [[[77.08053896540116, 28.2610232492603], [77.08063896540116, 28.2610232492603], [77.08063896540116, 28.2611232492603], [77.08053896540116, 28.2611232492603], [77.08053896540116, 28.2610232492603]]]}}, {"type": "Feature", "properties": {}, "geometry": {"type": "Polygon", "coordinates": [[[77.07533970108233, 28.259858518558286], [77.07543970108233, 28.259858518558286], [77.07543970108233, 28.259958518558285], [77.07533970108233, 28.259958518558285], [77.07533970108233, 28.259858518558286]]]}}, {"type": "Feature", "properties": {}, "geometry": {"type": "Polygon", "coordinates": [[[77.05452982445509, 28.254259103156983], [77.05462982445509, 28.254259103156983], [77.05462982445509, 28.254359103156983], [77.05452982445509, 28.254359103156983], [77.05452982445509, 28.254259103156983]]]}}, {"type": "Feature", "properties": {}, "geometry": {"type": "Polygon", "coordinates": [[[77.08225818745213, 28.25448629005011], [77.08235818745213, 28.25448629005011], [77.08235818745213, 28.25458629005011], [77.08225818745213, 28.25458629005011], [77.08225818745213, 28.25448629005011]]]}}, {"type": "Feature", "properties": {}, "geometry": {"type": "Polygon", "coordinates": [[[77.07072841369023, 28.237942528279394], [77.07082841369024, 28.237942528279394], [77.07082841369024, 28.238042528279394], [77.07072841369023, 28.238042528279394], [77.07072841369023, 28.237942528279394]]]}}, {"type": "Feature", "properties": {}, "geometry": {"type": "Polygon", "coordinates": [[[77.06034819075748, 28.25615756078465], [77.06044819075748, 28.25615756078465], [77.06044819075748, 28.25625756078465], [77.06034819075748, 28.25625756078465], [77.06034819075748, 28.25615756078465]]]}}, {"type": "Feature", "properties": {}, "geometry": {"type": "Polygon", "coordinates": [[[77.08146392584636, 28.249233645104795], [77.08156392584637, 28.249233645104795], [77.08156392584637, 28.249333645104794], [77.08146392584636, 28.249333645104794], [77.08146392584636, 28.249233645104795]]]}}, {"type": "Feature", "properties": {}, "geometry": {"type": "Polygon", "coordinates": [[[77.0623514704259, 28.24748860894382], [77.0624514704259, 28.24748860894382], [77.0624514704259, 28.24758860894382], [77.0623514704259, 28.24758860894382], [77.0623514704259, 28.24748860894382]]]}}, {"type": "Feature", "properties": {}, "geometry": {"type": "Polygon", "coordinates": [[[77.06213102714553, 28.25382890544538], [77.06223102714553, 28.25382890544538], [77.06223102714553, 28.25392890544538], [77.06213102714553, 28.25392890544538], [77.06213102714553, 28.25382890544538]]]}}, {"type": "Feature", "properties": {}, "geometry": {"type": "Polygon", "coordinates": [[[77.05436266414625, 28.24764553948741], [77.05446266414626, 28.24764553948741], [77.05446266414626, 28.24774553948741], [77.05436266414625, 28.24774553948741], [77.05436266414625, 28.24764553948741]]]}}, {"type": "Feature", "properties": {}, "geometry": {"type": "Polygon", "coordinates": [[[77.07066808718213, 28.261842610016746], [77.07076808718213, 28.261842610016746], [77.07076808718213, 28.261942610016746], [77.07066808718213, 28.261942610016746], [77.07066808718213, 28.261842610016746]]]}}, {"type": "Feature", "properties": {}, "geometry": {"type": "Polygon", "coordinates": [[[77.05796584308344, 28.23926250801365], [77.05806584308344, 28.23926250801365], [77.05806584308344, 28.23936250801365], [77.05796584308344, 28.23936250801365], [77.05796584308344, 28.23926250801365]]]}}, {"type": "Feature", "properties": {}, "geometry": {"type": "Polygon", "coordinates": [[[77.08014075485097, 28.258496692108142], [77.08024075485098, 28.258496692108142], [77.08024075485098, 28.258596692108142], [77.08014075485097, 28.258596692108142], [77.08014075485097, 28.258496692108142]]]}}, {"type": "Feature", "properties": {}, "geometry": {"type": "Polygon", "coordinates": [[[77.05736784352271, 28.242301132587123], [77.05746784352272, 28.242301132587123], [77.05746784352272, 28.242401132587123], [77.05736784352271, 28.242401132587123], [77.05736784352271, 28.242301132587123]]]}}, {"type": "Feature", "properties": {}, "geometry": {"type": "Polygon", "coordinates": [[[77.07271621130602, 28.24702028599967], [77.07281621130602, 28.24702028599967], [77.07281621130602, 28.24712028599967], [77.07271621130602, 28.24712028599967], [77.07271621130602, 28.24702028599967]]]}}, {"type": "Feature", "properties": {}, "geometry": {"type": "Polygon", "coordinates": [[[77.0835794125039, 28.260752595748], [77.0836794125039, 28.260752595748], [77.0836794125039, 28.260852595748], [77.0835794125039, 28.260852595748], [77.0835794125039, 28.260752595748]]]}}, {"type": "Feature", "properties": {}, "geometry": {"type": "Polygon", "coordinates": [[[77.07624658979303, 28.23557283562276], [77.07634658979303, 28.23557283562276], [77.07634658979303, 28.23567283562276], [77.07624658979303, 28.23567283562276], [77.07624658979303, 28.23557283562276]]]}}, {"type": "Feature", "properties": {}, "geometry": {"type": "Polygon", "coordinates": [[[77.08021514564622, 28.258697095880994], [77.08031514564622, 28.258697095880994], [77.08031514564622, 28.258797095880993], [77.08021514564622, 28.258797095880993], [77.08021514564622, 28.258697095880994]]]}}, {"type": "Feature", "properties": {}, "geometry": {"type": "Polygon", "coordinates": [[[77.05755451882695, 28.258428813249466], [77.05765451882695, 28.258428813249466], [77.05765451882695, 28.258528813249466], [77.05755451882695, 28.258528813249466], [77.05755451882695, 28.258428813249466]]]}}, {"type": "Feature", "properties": {}, "geometry": {"type": "Polygon", "coordinates": [[[77.07868568913831, 28.24131456878657], [77.07878568913831, 28.24131456878657], [77.07878568913831, 28.24141456878657], [77.07868568913831, 28.24141456878657], [77.07868568913831, 28.24131456878657]]]}}, {"type": "Feature", "properties": {}, "geometry": {"type": "Polygon", "coordinates": [[[77.06088496395265, 28.258468303911084], [77.06098496395265, 28.258468303911084], [77.06098496395265, 28.258568303911083], [77.06088496395265, 28.258568303911083], [77.06088496395265, 28.258468303911084]]]}}, {"type": "Feature", "properties": {}, "geometry": {"type": "Polygon", "coordinates": [[[77.08027065499212, 28.244481596033747], [77.08037065499212, 28.244481596033747], [77.08037065499212, 28.244581596033747], [77.08027065499212, 28.244581596033747], [77.08027065499212, 28.244481596033747]]]}}, {"type": "Feature", "properties": {}, "geometry": {"type": "Polygon", "coordinates": [[[77.06633469643695, 28.253955316877974], [77.06643469643696, 28.253955316877974], [77.06643469643696, 28.254055316877974], [77.06633469643695, 28.254055316877974], [77.06633469643695, 28.253955316877974]]]}}, {"type": "Feature", "properties": {}, "geometry": {"type": "Polygon", "coordinates": [[[77.05780137273884, 28.262780684554595], [77.05790137273884, 28.262780684554595], [77.05790137273884, 28.262880684554595], [77.05780137273884, 28.262880684554595], [77.05780137273884, 28.262780684554595]]]}}, {"type": "Feature", "properties": {}, "geometry": {"type": "Polygon", "coordinates": [[[77.06204651163985, 28.263556398600418], [77.06214651163985, 28.263556398600418], [77.06214651163985, 28.263656398600418], [77.06204651163985, 28.263656398600418], [77.06204651163985, 28.263556398600418]]]}}, {"type": "Feature", "properties": {}, "geometry": {"type": "Polygon", "coordinates": [[[77.06364218208184, 28.256559778737483], [77.06374218208184, 28.256559778737483], [77.06374218208184, 28.256659778737482], [77.06364218208184, 28.256659778737482], [77.06364218208184, 28.256559778737483]]]}}, {"type": "Feature", "properties": {}, "geometry": {"type": "Polygon", "coordinates": [[[77.07142405805673, 28.24631849858549], [77.07152405805674, 28.24631849858549], [77.07152405805674, 28.24641849858549], [77.07142405805673, 28.24641849858549], [77.07142405805673, 28.24631849858549]]]}}, {"type": "Feature", "properties": {}, "geometry": {"type": "Polygon", "coordinates": [[[77.0819787905641, 28.234816567346304], [77.0820787905641, 28.234816567346304], [77.0820787905641, 28.234916567346303], [77.0819787905641, 28.234916567346303], [77.0819787905641, 28.234816567346304]]]}}, {"type": "Feature", "properties": {}, "geometry": {"type": "Polygon", "coordinates": [[[77.07427812157452, 28.256829494478524], [77.07437812157453, 28.256829494478524], [77.07437812157453, 28.256929494478523], [77.07427812157452, 28.256929494478523], [77.07427812157452, 28.256829494478524]]]}}, {"type": "Feature", "properties": {}, "geometry": {"type": "Polygon", "coordinates": [[[77.06405017577478, 28.25473153513119], [77.06415017577478, 28.25473153513119], [77.06415017577478, 28.25483153513119], [77.06405017577478, 28.25483153513119], [77.06405017577478, 28.25473153513119]]]}}, {"type": "Feature", "properties": {}, "geometry": {"type": "Polygon", "coordinates": [[[77.06315245344499, 28.256265145763006], [77.06325245344499, 28.256265145763006], [77.06325245344499, 28.256365145763006], [77.06315245344499, 28.256365145763006], [77.06315245344499, 28.256265145763006]]]}}, {"type": "Feature", "properties": {}, "geometry": {"type": "Polygon", "coordinates": [[[77.06295784241549, 28.246748145511862], [77.06305784241549, 28.246748145511862], [77.06305784241549, 28.246848145511862], [77.06295784241549, 28.246848145511862], [77.06295784241549, 28.246748145511862]]]}}, {"type": "Feature", "properties": {}, "geometry": {"type": "Polygon", "coordinates": [[[77.07464038002189, 28.26294556459669], [77.0747403800219, 28.26294556459669], [77.0747403800219, 28.26304556459669], [77.07464038002189, 28.26304556459669], [77.07464038002189, 28.26294556459669]]]}}, {"type": "Feature", "properties": {}, "geometry": {"type": "Polygon", "coordinates": [[[77.07048823817597, 28.243664570352028], [77.07058823817597, 28.243664570352028], [77.07058823817597, 28.243764570352027], [77.07048823817597, 28.243764570352027], [77.07048823817597, 28.243664570352028]]]}}, {"type": "Feature", "properties": {}, "geometry": {"type": "Polygon", "coordinates": [[[77.07164595512297, 28.24758614095677], [77.07174595512298, 28.24758614095677], [77.07174595512298, 28.24768614095677], [77.07164595512297, 28.24768614095677], [77.07164595512297, 28.24758614095677]]]}}, {"type": "Feature", "properties": {}, "geometry": {"type": "Polygon", "coordinates": [[[77.06060299788544, 28.24808514822689], [77.06070299788544, 28.24808514822689], [77.06070299788544, 28.24818514822689], [77.06060299788544, 28.24818514822689], [77.06060299788544, 28.24808514822689]]]}}, {"type": "Feature", "properties": {}, "geometry": {"type": "Polygon", "coordinates": [[[77.05916618054695, 28.258585378406778], [77.05926618054696, 28.258585378406778], [77.05926618054696, 28.258685378406778], [77.05916618054695, 28.258685378406778], [77.05916618054695, 28.258585378406778]]]}}, {"type": "Feature", "properties": {}, "geometry": {"type": "Polygon", "coordinates": [[[77.06435117470166, 28.253763567114238], [77.06445117470166, 28.253763567114238], [77.06445117470166, 28.253863567114237], [77.06435117470166, 28.253863567114237], [77.06435117470166, 28.253763567114238]]]}}, {"type": "Feature", "properties": {}, "geometry": {"type": "Polygon", "coordinates": [[[77.06084895895974, 28.254741197733033], [77.06094895895974, 28.254741197733033], [77.06094895895974, 28.254841197733032], [77.06084895895974, 28.254841197733032], [77.06084895895974, 28.254741197733033]]]}}, {"type": "Feature", "properties": {}, "geometry": {"type": "Polygon", "coordinates": [[[77.06855901163495, 28.241917124791104], [77.06865901163495, 28.241917124791104], [77.06865901163495, 28.242017124791104], [77.06855901163495, 28.242017124791104], [77.06855901163495, 28.241917124791104]]]}}, {"type": "Feature", "properties": {}, "geometry": {"type": "Polygon", "coordinates": [[[77.07300129199314, 28.24719213660508], [77.07310129199314, 28.24719213660508], [77.07310129199314, 28.24729213660508], [77.07300129199314, 28.24729213660508], [77.07300129199314, 28.24719213660508]]]}}, {"type": "Feature", "properties": {}, "geometry": {"type": "Polygon", "coordinates": [[[77.06156635059068, 28.249382978515754], [77.06166635059068, 28.249382978515754], [77.06166635059068, 28.249482978515754], [77.06156635059068, 28.249482978515754], [77.06156635059068, 28.249382978515754]]]}}, {"type": "Feature", "properties": {}, "geometry": {"type": "Polygon", "coordinates": [[[77.0771833618462, 28.25720647815674], [77.0772833618462, 28.25720647815674], [77.0772833618462, 28.25730647815674], [77.0771833618462, 28.25730647815674], [77.0771833618462, 28.25720647815674]]]}}, {"type": "Feature", "properties": {}, "geometry": {"type": "Polygon", "coordinates": [[[77.08294436859352, 28.23984166596674], [77.08304436859352, 28.23984166596674], [77.08304436859352, 28.23994166596674], [77.08294436859352, 28.23994166596674], [77.08294436859352, 28.23984166596674]]]}}, {"type": "Feature", "properties": {}, "geometry": {"type": "Polygon", "coordinates": [[[77.07963702896818, 28.242266373370317], [77.07973702896818, 28.242266373370317], [77.07973702896818, 28.242366373370317], [77.07963702896818, 28.242366373370317], [77.07963702896818, 28.242266373370317]]]}}, {"type": "Feature", "properties": {}, "geometry": {"type": "Polygon", "coordinates": [[[77.08386540928753, 28.254862343860125], [77.08396540928753, 28.254862343860125], [77.08396540928753, 28.254962343860125], [77.08386540928753, 28.254962343860125], [77.08386540928753, 28.254862343860125]]]}}, {"type": "Feature", "properties": {}, "geometry": {"type": "Polygon", "coordinates": [[[77.07264535187123, 28.26144421122376], [77.07274535187123, 28.26144421122376], [77.07274535187123, 28.26154421122376], [77.07264535187123, 28.26154421122376], [77.07264535187123, 28.26144421122376]]]}}, {"type": "Feature", "properties": {}, "geometry": {"type": "Polygon", "coordinates": [[[77.0707553209493, 28.25969017172429], [77.0708553209493, 28.25969017172429], [77.0708553209493, 28.25979017172429], [77.0707553209493, 28.25979017172429], [77.0707553209493, 28.25969017172429]]]}}, {"type": "Feature", "properties": {}, "geometry": {"type": "Polygon", "coordinates": [[[77.06189991837519, 28.248981531535726], [77.0619999183752, 28.248981531535726], [77.0619999183752, 28.249081531535726], [77.06189991837519, 28.249081531535726], [77.06189991837519, 28.248981531535726]]]}}, {"type": "Feature", "properties": {}, "geometry": {"type": "Polygon", "coordinates": [[[77.06987701891593, 28.257606789762992], [77.06997701891594, 28.257606789762992], [77.06997701891594, 28.25770678976299], [77.06987701891593, 28.25770678976299], [77.06987701891593, 28.257606789762992]]]}}, {"type": "Feature", "properties": {}, "geometry": {"type": "Polygon", "coordinates": [[[77.062703359058, 28.236970413486468], [77.06280335905801, 28.236970413486468], [77.06280335905801, 28.237070413486467], [77.062703359058, 28.237070413486467], [77.062703359058, 28.236970413486468]]]}}, {"type": "Feature", "properties": {}, "geometry": {"type": "Polygon", "coordinates": [[[77.0582706002894, 28.250962751619245], [77.05837060028941, 28.250962751619245], [77.05837060028941, 28.251062751619244], [77.0582706002894, 28.251062751619244], [77.0582706002894, 28.250962751619245]]]}}, {"type": "Feature", "properties": {}, "geometry": {"type": "Polygon", "coordinates": [[[77.05609914533231, 28.255905357592987], [77.05619914533231, 28.255905357592987], [77.05619914533231, 28.256005357592986], [77.05609914533231, 28.256005357592986], [77.05609914533231, 28.255905357592987]]]}}, {"type": "Feature", "properties": {}, "geometry": {"type": "Polygon", "coordinates": [[[77.06038107474076, 28.247294678566597], [77.06048107474076, 28.247294678566597], [77.06048107474076, 28.247394678566597], [77.06038107474076, 28.247394678566597], [77.06038107474076, 28.247294678566597]]]}}, {"type": "Feature", "properties": {}, "geometry": {"type": "Polygon", "coordinates": [[[77.07517270920462, 28.25230206079896], [77.07527270920463, 28.25230206079896], [77.07527270920463, 28.25240206079896], [77.07517270920462, 28.25240206079896], [77.07517270920462, 28.25230206079896]]]}}, {"type": "Feature", "properties": {}, "geometry": {"type": "Polygon", "coordinates": [[[77.05433241014832, 28.24618747340535], [77.05443241014832, 28.24618747340535], [77.05443241014832, 28.24628747340535], [77.05433241014832, 28.24628747340535], [77.05433241014832, 28.24618747340535]]]}}, {"type": "Feature", "properties": {}, "geometry": {"type": "Polygon", "coordinates": [[[77.08277861653889, 28.260377693217766], [77.08287861653889, 28.260377693217766], [77.08287861653889, 28.260477693217766], [77.08277861653889, 28.260477693217766], [77.08277861653889, 28.260377693217766]]]}}, {"type": "Feature", "properties": {}, "geometry": {"type": "Polygon", "coordinates": [[[77.07221373927653, 28.250999795782402], [77.07231373927654, 28.250999795782402], [77.07231373927654, 28.2510997957824], [77.07221373927653, 28.2510997957824], [77.07221373927653, 28.250999795782402]]]}}, {"type": "Feature", "properties": {}, "geometry": {"type": "Polygon", "coordinates": [[[77.05502158346151, 28.24782882184691], [77.05512158346151, 28.24782882184691], [77.05512158346151, 28.24792882184691], [77.05502158346151, 28.24792882184691], [77.05502158346151, 28.24782882184691]]]}}, {"type": "Feature", "properties": {}, "geometry": {"type": "Polygon", "coordinates": [[[77.05914155898087, 28.246717788413317], [77.05924155898087, 28.246717788413317], [77.05924155898087, 28.246817788413317], [77.05914155898087, 28.246817788413317], [77.05914155898087, 28.246717788413317]]]}}, {"type": "Feature", "properties": {}, "geometry": {"type": "Polygon", "coordinates": [[[77.05497719963405, 28.253387026424132], [77.05507719963406, 28.253387026424132], [77.05507719963406, 28.253487026424132], [77.05497719963405, 28.253487026424132], [77.05497719963405, 28.253387026424132]]]}}, {"type": "Feature", "properties": {}, "geometry": {"type": "Polygon", "coordinates": [[[77.07337319928645, 28.235501570923425], [77.07347319928645, 28.235501570923425], [77.07347319928645, 28.235601570923425], [77.07337319928645, 28.235601570923425], [77.07337319928645, 28.235501570923425]]]}}, {"type": "Feature", "properties": {}, "geometry": {"type": "Polygon", "coordinates": [[[77.06548661401091, 28.236156592746124], [77.06558661401091, 28.236156592746124], [77.06558661401091, 28.236256592746123], [77.06548661401091, 28.236256592746123], [77.06548661401091, 28.236156592746124]]]}}, {"type": "Feature", "properties": {}, "geometry": {"type": "Polygon", "coordinates": [[[77.06564938941398, 28.257636468522367], [77.06574938941398, 28.257636468522367], [77.06574938941398, 28.257736468522367], [77.06564938941398, 28.257736468522367], [77.06564938941398, 28.257636468522367]]]}}, {"type": "Feature", "properties": {}, "geometry": {"type": "Polygon", "coordinates": [[[77.05651300196897, 28.24227997166785], [77.05661300196897, 28.24227997166785], [77.05661300196897, 28.242379971667848], [77.05651300196897, 28.242379971667848], [77.05651300196897, 28.24227997166785]]]}}, {"type": "Feature", "properties": {}, "geometry": {"type": "Polygon", "coordinates": [[[77.06474385353957, 28.26478160477016], [77.06484385353957, 28.26478160477016], [77.06484385353957, 28.26488160477016], [77.06474385353957, 28.26488160477016], [77.06474385353957, 28.26478160477016]]]}}, {"type": "Feature", "properties": {}, "geometry": {"type": "Polygon", "coordinates": [[[77.0769618796416, 28.254162447862026], [77.0770618796416, 28.254162447862026], [77.0770618796416, 28.254262447862025], [77.0769618796416, 28.254262447862025], [77.0769618796416, 28.254162447862026]]]}}, {"type": "Feature", "properties": {}, "geometry": {"type": "Polygon", "coordinates": [[[77.05865933666601, 28.235362238172996], [77.05875933666601, 28.235362238172996], [77.05875933666601, 28.235462238172996], [77.05865933666601, 28.235462238172996], [77.05865933666601, 28.235362238172996]]]}}, {"type": "Feature", "properties": {}, "geometry": {"type": "Polygon", "coordinates": [[[77.06079877571857, 28.25169915688741], [77.06089877571857, 28.25169915688741], [77.06089877571857, 28.251799156887408], [77.06079877571857, 28.251799156887408], [77.06079877571857, 28.25169915688741]]]}}, {"type": "Feature", "properties": {}, "geometry": {"type": "Polygon", "coordinates": [[[77.0724918025123, 28.23961803416245], [77.0725918025123, 28.23961803416245], [77.0725918025123, 28.23971803416245], [77.0724918025123, 28.23971803416245], [77.0724918025123, 28.23961803416245]]]}}, {"type": "Feature", "properties": {}, "geometry": {"type": "Polygon", "coordinates": [[[77.08302405281592, 28.259136738756983], [77.08312405281592, 28.259136738756983], [77.08312405281592, 28.259236738756982], [77.08302405281592, 28.259236738756982], [77.08302405281592, 28.259136738756983]]]}}, {"type": "Feature", "properties": {}, "geometry": {"type": "Polygon", "coordinates": [[[77.07465787045696, 28.2440277136643], [77.07475787045696, 28.2440277136643], [77.07475787045696, 28.244127713664298], [77.07465787045696, 28.244127713664298], [77.07465787045696, 28.2440277136643]]]}}, {"type": "Feature", "properties": {}, "geometry": {"type": "Polygon", "coordinates": [[[77.05653707866006, 28.256188613870165], [77.05663707866006, 28.256188613870165], [77.05663707866006, 28.256288613870165], [77.05653707866006, 28.256288613870165], [77.05653707866006, 28.256188613870165]]]}}, {"type": "Feature", "properties": {}, "geometry": {"type": "Polygon", "coordinates": [[[77.07747951452026, 28.237787162647827], [77.07757951452027, 28.237787162647827], [77.07757951452027, 28.237887162647827], [77.07747951452026, 28.237887162647827], [77.07747951452026, 28.237787162647827]]]}}, {"type": "Feature", "properties": {}, "geometry": {"type": "Polygon", "coordinates": [[[77.08380012114934, 28.238285813081614], [77.08390012114934, 28.238285813081614], [77.08390012114934, 28.238385813081614], [77.08380012114934, 28.238385813081614], [77.08380012114934, 28.238285813081614]]]}}]}