{"type": "FeatureCollection", "features": [{"type": "Feature", "properties": {"missing_count": 8, "intensity": 0.58}, "geometry": {"type": "Polygon", "coordinates": [[[77.07318700403766, 28.258357145390153], [77.07518700403766, 28.258357145390153], [77.07518700403766, 28.260357145390152], [77.07318700403766, 28.260357145390152], [77.07318700403766, 28.258357145390153]]]}}, {"type": "Feature", "properties": {"missing_count": 6, "intensity": 0.99}, "geometry": {"type": "Polygon", "coordinates": [[[77.07252392274349, 28.25734329303941], [77.07452392274348, 28.25734329303941], [77.07452392274348, 28.259343293039407], [77.07252392274349, 28.259343293039407], [77.07252392274349, 28.25734329303941]]]}}, {"type": "Feature", "properties": {"missing_count": 6, "intensity": 0.51}, "geometry": {"type": "Polygon", "coordinates": [[[77.07361012061504, 28.253649847248603], [77.07561012061504, 28.253649847248603], [77.07561012061504, 28.255649847248602], [77.07361012061504, 28.255649847248602], [77.07361012061504, 28.253649847248603]]]}}, {"type": "Feature", "properties": {"missing_count": 4, "intensity": 0.92}, "geometry": {"type": "Polygon", "coordinates": [[[77.07517034036394, 28.2564950207894], [77.07717034036393, 28.2564950207894], [77.07717034036393, 28.2584950207894], [77.07517034036394, 28.2584950207894], [77.07517034036394, 28.2564950207894]]]}}, {"type": "Feature", "properties": {"missing_count": 6, "intensity": 0.6}, "geometry": {"type": "Polygon", "coordinates": [[[77.07552004945603, 28.253909979222577], [77.07752004945603, 28.253909979222577], [77.07752004945603, 28.255909979222576], [77.07552004945603, 28.255909979222576], [77.07552004945603, 28.253909979222577]]]}}, {"type": "Feature", "properties": {"missing_count": 3, "intensity": 0.57}, "geometry": {"type": "Polygon", "coordinates": [[[77.07133738130453, 28.258001739246115], [77.07333738130453, 28.258001739246115], [77.07333738130453, 28.260001739246114], [77.07133738130453, 28.260001739246114], [77.07133738130453, 28.258001739246115]]]}}, {"type": "Feature", "properties": {"missing_count": 8, "intensity": 0.69}, "geometry": {"type": "Polygon", "coordinates": [[[77.07389550177932, 28.254088446798175], [77.07589550177931, 28.254088446798175], [77.07589550177931, 28.256088446798174], [77.07389550177932, 28.256088446798174], [77.07389550177932, 28.254088446798175]]]}}, {"type": "Feature", "properties": {"missing_count": 5, "intensity": 0.6}, "geometry": {"type": "Polygon", "coordinates": [[[77.07350864462163, 28.252888763347062], [77.07550864462162, 28.252888763347062], [77.07550864462162, 28.25488876334706], [77.07350864462163, 28.25488876334706], [77.07350864462163, 28.252888763347062]]]}}, {"type": "Feature", "properties": {"missing_count": 5, "intensity": 0.92}, "geometry": {"type": "Polygon", "coordinates": [[[77.07221768043371, 28.257802981420962], [77.0742176804337, 28.257802981420962], [77.0742176804337, 28.25980298142096], [77.07221768043371, 28.25980298142096], [77.07221768043371, 28.257802981420962]]]}}, {"type": "Feature", "properties": {"missing_count": 6, "intensity": 0.54}, "geometry": {"type": "Polygon", "coordinates": [[[77.07111044435332, 28.25954619705066], [77.07311044435332, 28.25954619705066], [77.07311044435332, 28.26154619705066], [77.07111044435332, 28.26154619705066], [77.07111044435332, 28.25954619705066]]]}}, {"type": "Feature", "properties": {"missing_count": 8, "intensity": 0.68}, "geometry": {"type": "Polygon", "coordinates": [[[77.06954917839278, 28.257904355800797], [77.07154917839277, 28.257904355800797], [77.07154917839277, 28.259904355800796], [77.06954917839278, 28.259904355800796], [77.06954917839278, 28.257904355800797]]]}}, {"type": "Feature", "properties": {"missing_count": 8, "intensity": 0.88}, "geometry": {"type": "Polygon", "coordinates": [[[77.07224984917558, 28.259007441342558], [77.07424984917557, 28.259007441342558], [77.07424984917557, 28.261007441342556], [77.07224984917558, 28.261007441342556], [77.07224984917558, 28.259007441342558]]]}}, {"type": "Feature", "properties": {"missing_count": 3, "intensity": 0.48}, "geometry": {"type": "Polygon", "coordinates": [[[77.05941684256167, 28.242916152011208], [77.06141684256167, 28.242916152011208], [77.06141684256167, 28.244916152011207], [77.05941684256167, 28.244916152011207], [77.05941684256167, 28.242916152011208]]]}}, {"type": "Feature", "properties": {"missing_count": 3, "intensity": 0.92}, "geometry": {"type": "Polygon", "coordinates": [[[77.06085595763145, 28.245422828721416], [77.06285595763144, 28.245422828721416], [77.06285595763144, 28.247422828721415], [77.06085595763145, 28.247422828721415], [77.06085595763145, 28.245422828721416]]]}}, {"type": "Feature", "properties": {"missing_count": 6, "intensity": 0.41}, "geometry": {"type": "Polygon", "coordinates": [[[77.06240760869446, 28.241222449678165], [77.06440760869445, 28.241222449678165], [77.06440760869445, 28.243222449678164], [77.06240760869446, 28.243222449678164], [77.06240760869446, 28.241222449678165]]]}}, {"type": "Feature", "properties": {"missing_count": 4, "intensity": 0.44}, "geometry": {"type": "Polygon", "coordinates": [[[77.06516746377078, 28.238853243327735], [77.06716746377077, 28.238853243327735], [77.06716746377077, 28.240853243327734], [77.06516746377078, 28.240853243327734], [77.06516746377078, 28.238853243327735]]]}}, {"type": "Feature", "properties": {"missing_count": 7, "intensity": 0.82}, "geometry": {"type": "Polygon", "coordinates": [[[77.06032018223634, 28.243952202330185], [77.06232018223633, 28.243952202330185], [77.06232018223633, 28.245952202330184], [77.06032018223634, 28.245952202330184], [77.06032018223634, 28.243952202330185]]]}}, {"type": "Feature", "properties": {"missing_count": 9, "intensity": 0.8}, "geometry": {"type": "Polygon", "coordinates": [[[77.0650141223388, 28.242898693220635], [77.06701412233879, 28.242898693220635], [77.06701412233879, 28.244898693220634], [77.0650141223388, 28.244898693220634], [77.0650141223388, 28.242898693220635]]]}}, {"type": "Feature", "properties": {"missing_count": 8, "intensity": 0.83}, "geometry": {"type": "Polygon", "coordinates": [[[77.06583311674098, 28.241968978499177], [77.06783311674097, 28.241968978499177], [77.06783311674097, 28.243968978499176], [77.06583311674098, 28.243968978499176], [77.06583311674098, 28.241968978499177]]]}}]}
