{"type": "FeatureCollection", "features": [{"type": "Feature", "properties": {}, "geometry": {"type": "Polygon", "coordinates": [[[77.07164863875151, 28.254792905511277], [77.07174863875152, 28.254792905511277], [77.07174863875152, 28.254892905511277], [77.07164863875151, 28.254892905511277], [77.07164863875151, 28.254792905511277]]]}}, {"type": "Feature", "properties": {}, "geometry": {"type": "Polygon", "coordinates": [[[77.07694963267828, 28.26003314379416], [77.07704963267828, 28.26003314379416], [77.07704963267828, 28.26013314379416], [77.07694963267828, 28.26013314379416], [77.07694963267828, 28.26003314379416]]]}}, {"type": "Feature", "properties": {}, "geometry": {"type": "Polygon", "coordinates": [[[77.07720668032513, 28.257307667416722], [77.07730668032514, 28.257307667416722], [77.07730668032514, 28.25740766741672], [77.07720668032513, 28.25740766741672], [77.07720668032513, 28.257307667416722]]]}}, {"type": "Feature", "properties": {}, "geometry": {"type": "Polygon", "coordinates": [[[77.07871670949378, 28.258598003413805], [77.07881670949378, 28.258598003413805], [77.07881670949378, 28.258698003413805], [77.07871670949378, 28.258698003413805], [77.07871670949378, 28.258598003413805]]]}}, {"type": "Feature", "properties": {}, "geometry": {"type": "Polygon", "coordinates": [[[77.0729826423945, 28.25622738274167], [77.07308264239451, 28.25622738274167], [77.07308264239451, 28.25632738274167], [77.0729826423945, 28.25632738274167], [77.0729826423945, 28.25622738274167]]]}}, {"type": "Feature", "properties": {}, "geometry": {"type": "Polygon", "coordinates": [[[77.0775197772259, 28.25279674532601], [77.0776197772259, 28.25279674532601], [77.0776197772259, 28.25289674532601], [77.0775197772259, 28.25289674532601], [77.0775197772259, 28.25279674532601]]]}}, {"type": "Feature", "properties": {}, "geometry": {"type": "Polygon", "coordinates": [[[77.07011577381027, 28.260312673719305], [77.07021577381028, 28.260312673719305], [77.07021577381028, 28.260412673719305], [77.07011577381027, 28.260412673719305], [77.07011577381027, 28.260312673719305]]]}}, {"type": "Feature", "properties": {}, "geometry": {"type": "Polygon", "coordinates": [[[77.06764968582414, 28.254152423606687], [77.06774968582414, 28.254152423606687], [77.06774968582414, 28.254252423606687], [77.06764968582414, 28.254252423606687], [77.06764968582414, 28.254152423606687]]]}}, {"type": "Feature", "properties": {}, "geometry": {"type": "Polygon", "coordinates": [[[77.0767260899349, 28.25235953419609], [77.0768260899349, 28.25235953419609], [77.0768260899349, 28.25245953419609], [77.0767260899349, 28.25245953419609], [77.0767260899349, 28.25235953419609]]]}}, {"type": "Feature", "properties": {}, "geometry": {"type": "Polygon", "coordinates": [[[77.07036826824341, 28.25824862377732], [77.07046826824342, 28.25824862377732], [77.07046826824342, 28.25834862377732], [77.07036826824341, 28.25834862377732], [77.07036826824341, 28.25824862377732]]]}}, {"type": "Feature", "properties": {}, "geometry": {"type": "Polygon", "coordinates": [[[77.0758374693233, 28.25080480493954], [77.0759374693233, 28.25080480493954], [77.0759374693233, 28.25090480493954], [77.0758374693233, 28.25090480493954], [77.0758374693233, 28.25080480493954]]]}}, {"type": "Feature", "properties": {}, "geometry": {"type": "Polygon", "coordinates": [[[77.07494808119742, 28.258075191933802], [77.07504808119742, 28.258075191933802], [77.07504808119742, 28.258175191933802], [77.07494808119742, 28.258175191933802], [77.07494808119742, 28.258075191933802]]]}}, {"type": "Feature", "properties": {}, "geometry": {"type": "Polygon", "coordinates": [[[77.06991669295226, 28.250758502015696], [77.07001669295227, 28.250758502015696], [77.07001669295227, 28.250858502015696], [77.06991669295226, 28.250858502015696], [77.06991669295226, 28.250758502015696]]]}}, {"type": "Feature", "properties": {}, "geometry": {"type": "Polygon", "coordinates": [[[77.07288840244446, 28.256656318167803], [77.07298840244447, 28.256656318167803], [77.07298840244447, 28.256756318167803], [77.07288840244446, 28.256756318167803], [77.07288840244446, 28.256656318167803]]]}}, {"type": "Feature", "properties": {}, "geometry": {"type": "Polygon", "coordinates": [[[77.07123035204901, 28.258582500168654], [77.07133035204902, 28.258582500168654], [77.07133035204902, 28.258682500168653], [77.07123035204901, 28.258682500168653], [77.07123035204901, 28.258582500168654]]]}}, {"type": "Feature", "properties": {}, "geometry": {"type": "Polygon", "coordinates": [[[77.06855564590506, 28.25260271053679], [77.06865564590507, 28.25260271053679], [77.06865564590507, 28.25270271053679], [77.06855564590506, 28.25270271053679], [77.06855564590506, 28.25260271053679]]]}}, {"type": "Feature", "properties": {}, "geometry": {"type": "Polygon", "coordinates": [[[77.07625182026653, 28.256045282976572], [77.07635182026654, 28.256045282976572], [77.07635182026654, 28.256145282976572], [77.07625182026653, 28.256145282976572], [77.07625182026653, 28.256045282976572]]]}}, {"type": "Feature", "properties": {}, "geometry": {"type": "Polygon", "coordinates": [[[77.07603800211999, 28.255517774107286], [77.07613800211999, 28.255517774107286], [77.07613800211999, 28.255617774107286], [77.07603800211999, 28.255617774107286], [77.07603800211999, 28.255517774107286]]]}}, {"type": "Feature", "properties": {}, "geometry": {"type": "Polygon", "coordinates": [[[77.06831454857051, 28.253014229388345], [77.06841454857052, 28.253014229388345], [77.06841454857052, 28.253114229388345], [77.06831454857051, 28.253114229388345], [77.06831454857051, 28.253014229388345]]]}}, {"type": "Feature", "properties": {}, "geometry": {"type": "Polygon", "coordinates": [[[77.06738002093385, 28.25178559192226], [77.06748002093386, 28.25178559192226], [77.06748002093386, 28.25188559192226], [77.06738002093385, 28.25188559192226], [77.06738002093385, 28.25178559192226]]]}}, {"type": "Feature", "properties": {}, "geometry": {"type": "Polygon", "coordinates": [[[77.07389953281945, 28.261279423021122], [77.07399953281946, 28.261279423021122], [77.07399953281946, 28.261379423021122], [77.07389953281945, 28.261379423021122], [77.07389953281945, 28.261279423021122]]]}}, {"type": "Feature", "properties": {}, "geometry": {"type": "Polygon", "coordinates": [[[77.0732023602548, 28.26014375363304], [77.0733023602548, 28.26014375363304], [77.0733023602548, 28.26024375363304], [77.0732023602548, 28.26024375363304], [77.0732023602548, 28.26014375363304]]]}}, {"type": "Feature", "properties": {}, "geometry": {"type": "Polygon", "coordinates": [[[77.07239093467875, 28.25519817635432], [77.07249093467875, 28.25519817635432], [77.07249093467875, 28.25529817635432], [77.07239093467875, 28.25529817635432], [77.07239093467875, 28.25519817635432]]]}}, {"type": "Feature", "properties": {}, "geometry": {"type": "Polygon", "coordinates": [[[77.07302938494078, 28.260962975393895], [77.07312938494078, 28.260962975393895], [77.07312938494078, 28.261062975393894], [77.07302938494078, 28.261062975393894], [77.07302938494078, 28.260962975393895]]]}}, {"type": "Feature", "properties": {}, "geometry": {"type": "Polygon", "coordinates": [[[77.07461943120572, 28.250483745318412], [77.07471943120572, 28.250483745318412], [77.07471943120572, 28.250583745318412], [77.07461943120572, 28.250583745318412], [77.07461943120572, 28.250483745318412]]]}}, {"type": "Feature", "properties": {}, "geometry": {"type": "Polygon", "coordinates": [[[77.07099420157893, 28.25633961063368], [77.07109420157893, 28.25633961063368], [77.07109420157893, 28.25643961063368], [77.07099420157893, 28.25643961063368], [77.07099420157893, 28.25633961063368]]]}}, {"type": "Feature", "properties": {}, "geometry": {"type": "Polygon", "coordinates": [[[77.07456303406387, 28.258791027485035], [77.07466303406387, 28.258791027485035], [77.07466303406387, 28.258891027485035], [77.07456303406387, 28.258891027485035], [77.07456303406387, 28.258791027485035]]]}}, {"type": "Feature", "properties": {}, "geometry": {"type": "Polygon", "coordinates": [[[77.07258898987988, 28.256078920421313], [77.07268898987988, 28.256078920421313], [77.07268898987988, 28.256178920421313], [77.07258898987988, 28.256178920421313], [77.07258898987988, 28.256078920421313]]]}}, {"type": "Feature", "properties": {}, "geometry": {"type": "Polygon", "coordinates": [[[77.07090087112816, 28.261613264399276], [77.07100087112816, 28.261613264399276], [77.07100087112816, 28.261713264399276], [77.07090087112816, 28.261713264399276], [77.07090087112816, 28.261613264399276]]]}}, {"type": "Feature", "properties": {}, "geometry": {"type": "Polygon", "coordinates": [[[77.07848341877566, 28.25849437922441], [77.07858341877566, 28.25849437922441], [77.07858341877566, 28.25859437922441], [77.07848341877566, 28.25859437922441], [77.07848341877566, 28.25849437922441]]]}}, {"type": "Feature", "properties": {}, "geometry": {"type": "Polygon", "coordinates": [[[77.06898682918506, 28.257497657106974], [77.06908682918507, 28.257497657106974], [77.06908682918507, 28.257597657106974], [77.06898682918506, 28.257597657106974], [77.06898682918506, 28.257497657106974]]]}}, {"type": "Feature", "properties": {}, "geometry": {"type": "Polygon", "coordinates": [[[77.07263418781395, 28.249669486457943], [77.07273418781395, 28.249669486457943], [77.07273418781395, 28.249769486457943], [77.07263418781395, 28.249769486457943], [77.07263418781395, 28.249669486457943]]]}}, {"type": "Feature", "properties": {}, "geometry": {"type": "Polygon", "coordinates": [[[77.07574436622598, 28.252463924212595], [77.07584436622598, 28.252463924212595], [77.07584436622598, 28.252563924212595], [77.07574436622598, 28.252563924212595], [77.07574436622598, 28.252463924212595]]]}}, {"type": "Feature", "properties": {}, "geometry": {"type": "Polygon", "coordinates": [[[77.07837328094178, 28.257986136443005], [77.07847328094178, 28.257986136443005], [77.07847328094178, 28.258086136443005], [77.07837328094178, 28.258086136443005], [77.07837328094178, 28.257986136443005]]]}}, {"type": "Feature", "properties": {}, "geometry": {"type": "Polygon", "coordinates": [[[77.07838156319117, 28.257647565227856], [77.07848156319118, 28.257647565227856], [77.07848156319118, 28.257747565227856], [77.07838156319117, 28.257747565227856], [77.07838156319117, 28.257647565227856]]]}}, {"type": "Feature", "properties": {}, "geometry": {"type": "Polygon", "coordinates": [[[77.06638210380001, 28.243047770185083], [77.06648210380001, 28.243047770185083], [77.06648210380001, 28.243147770185082], [77.06638210380001, 28.243147770185082], [77.06638210380001, 28.243047770185083]]]}}, {"type": "Feature", "properties": {}, "geometry": {"type": "Polygon", "coordinates": [[[77.06035080544275, 28.238379990007004], [77.06045080544276, 28.238379990007004], [77.06045080544276, 28.238479990007004], [77.06035080544275, 28.238479990007004], [77.06035080544275, 28.238379990007004]]]}}, {"type": "Feature", "properties": {}, "geometry": {"type": "Polygon", "coordinates": [[[77.0585001399791, 28.239646025988552], [77.0586001399791, 28.239646025988552], [77.0586001399791, 28.239746025988552], [77.0585001399791, 28.239746025988552], [77.0585001399791, 28.239646025988552]]]}}, {"type": "Feature", "properties": {}, "geometry": {"type": "Polygon", "coordinates": [[[77.06220286033697, 28.24600089496301], [77.06230286033697, 28.24600089496301], [77.06230286033697, 28.24610089496301], [77.06220286033697, 28.24610089496301], [77.06220286033697, 28.24600089496301]]]}}, {"type": "Feature", "properties": {}, "geometry": {"type": "Polygon", "coordinates": [[[77.0614669831166, 28.237023718212562], [77.0615669831166, 28.237023718212562], [77.0615669831166, 28.237123718212562], [77.0614669831166, 28.237123718212562], [77.0614669831166, 28.237023718212562]]]}}, {"type": "Feature", "properties": {}, "geometry": {"type": "Polygon", "coordinates": [[[77.06691989860609, 28.23763582859908], [77.06701989860609, 28.23763582859908], [77.06701989860609, 28.237735828599078], [77.06691989860609, 28.237735828599078], [77.06691989860609, 28.23763582859908]]]}}, {"type": "Feature", "properties": {}, "geometry": {"type": "Polygon", "coordinates": [[[77.06724740864406, 28.246138716085856], [77.06734740864407, 28.246138716085856], [77.06734740864407, 28.246238716085855], [77.06724740864406, 28.246238716085855], [77.06724740864406, 28.246138716085856]]]}}, {"type": "Feature", "properties": {}, "geometry": {"type": "Polygon", "coordinates": [[[77.06475383855108, 28.23714776957828], [77.06485383855109, 28.23714776957828], [77.06485383855109, 28.23724776957828], [77.06475383855108, 28.23724776957828], [77.06475383855108, 28.23714776957828]]]}}, {"type": "Feature", "properties": {}, "geometry": {"type": "Polygon", "coordinates": [[[77.0590404903598, 28.245901163295105], [77.05914049035981, 28.245901163295105], [77.05914049035981, 28.246001163295105], [77.0590404903598, 28.246001163295105], [77.0590404903598, 28.245901163295105]]]}}, {"type": "Feature", "properties": {}, "geometry": {"type": "Polygon", "coordinates": [[[77.05806681237982, 28.24156725054001], [77.05816681237982, 28.24156725054001], [77.05816681237982, 28.24166725054001], [77.05806681237982, 28.24166725054001], [77.05806681237982, 28.24156725054001]]]}}, {"type": "Feature", "properties": {}, "geometry": {"type": "Polygon", "coordinates": [[[77.06572627204307, 28.24345943719741], [77.06582627204307, 28.24345943719741], [77.06582627204307, 28.24355943719741], [77.06572627204307, 28.24355943719741], [77.06572627204307, 28.24345943719741]]]}}, {"type": "Feature", "properties": {}, "geometry": {"type": "Polygon", "coordinates": [[[77.06674600520604, 28.239597206936306], [77.06684600520605, 28.239597206936306], [77.06684600520605, 28.239697206936306], [77.06674600520604, 28.239697206936306], [77.06674600520604, 28.239597206936306]]]}}, {"type": "Feature", "properties": {}, "geometry": {"type": "Polygon", "coordinates": [[[77.06029215370758, 28.241389314504058], [77.06039215370758, 28.241389314504058], [77.06039215370758, 28.241489314504058], [77.06029215370758, 28.241489314504058], [77.06029215370758, 28.241389314504058]]]}}, {"type": "Feature", "properties": {}, "geometry": {"type": "Polygon", "coordinates": [[[77.06249239828772, 28.240789048685954], [77.06259239828772, 28.240789048685954], [77.06259239828772, 28.240889048685954], [77.06249239828772, 28.240889048685954], [77.06249239828772, 28.240789048685954]]]}}, {"type": "Feature", "properties": {}, "geometry": {"type": "Polygon", "coordinates": [[[77.06123875047041, 28.24208446975132], [77.06133875047041, 28.24208446975132], [77.06133875047041, 28.24218446975132], [77.06123875047041, 28.24218446975132], [77.06123875047041, 28.24208446975132]]]}}, {"type": "Feature", "properties": {}, "geometry": {"type": "Polygon", "coordinates": [[[77.06353208458225, 28.244175499012062], [77.06363208458225, 28.244175499012062], [77.06363208458225, 28.244275499012062], [77.06353208458225, 28.244275499012062], [77.06353208458225, 28.244175499012062]]]}}, {"type": "Feature", "properties": {}, "geometry": {"type": "Polygon", "coordinates": [[[77.06645816243696, 28.242251671399593], [77.06655816243696, 28.242251671399593], [77.06655816243696, 28.242351671399593], [77.06645816243696, 28.242351671399593], [77.06645816243696, 28.242251671399593]]]}}, {"type": "Feature", "properties": {}, "geometry": {"type": "Polygon", "coordinates": [[[77.06696412965833, 28.237836050072325], [77.06706412965833, 28.237836050072325], [77.06706412965833, 28.237936050072324], [77.06696412965833, 28.237936050072324], [77.06696412965833, 28.237836050072325]]]}}, {"type": "Feature", "properties": {}, "geometry": {"type": "Polygon", "coordinates": [[[77.06272406549273, 28.238161744398436], [77.06282406549273, 28.238161744398436], [77.06282406549273, 28.238261744398436], [77.06272406549273, 28.238261744398436], [77.06272406549273, 28.238161744398436]]]}}, {"type": "Feature", "properties": {}, "geometry": {"type": "Polygon", "coordinates": [[[77.06631773315308, 28.24650781123868], [77.06641773315309, 28.24650781123868], [77.06641773315309, 28.24660781123868], [77.06631773315308, 28.24660781123868], [77.06631773315308, 28.24650781123868]]]}}]}
